0 DELTA 1 DEB
1 26830U 75052KJ  13282.33541788  .00000328  00000-0  85933-3 0  5814
2 26830 099.7050 329.5007 0139583 282.6526 137.1461 13.21007547604628
0 DELTA 1 DEB
1 26830U 75052KJ  13287.33446823  .00000409  00000-0  10481-2 0  5830
2 26830 099.7042 334.1313 0140055 270.8136 150.8474 13.21011660605283
0 DELTA 1 DEB
1 26830U 75052KJ  13289.99689940  .00000392  00000-0  10061-2 0  5849
2 26830 099.7036 336.5973 0140315 264.5234 212.4368 13.21015015605636
0 DELTA 1 DEB
1 26830U 75052KJ  13292.33316123  .00000427  00000-0  10892-2 0  5853
2 26830 099.7034 338.7611 0140541 259.0178 162.8922 13.21017174605940
0 DELTA 1 DEB
1 26830U 75052KJ  13294.37737275  .00000404  00000-0  10352-2 0  5861
2 26830 099.7035 340.6542 0140742 254.2072 164.4624 13.21019743606211
